[{"OBJECT_NAME":"SITRO-AIS 8 (ANOKHIN)","OBJECT_ID":"2023-091AD","EPOCH":"2026-03-09T23:44:40.058592","MEAN_MOTION":15.29359179,"ECCENTRICITY":0.0012509,"INCLINATION":97.5169,"RA_OF_ASC_NODE":133.2823,"ARG_OF_PERICENTER":92.0171,"MEAN_ANOMALY":268.2501,"EPHEMERIS_TYPE":0,"CLASSIFICATION_TYPE":"U","NORAD_CAT_ID":57193,"ELEMENT_SET_NO":999,"REV_AT_EPOCH":14927,"BSTAR":0.00064982524,"MEAN_MOTION_DOT":0.00018494,"MEAN_MOTION_DDOT":0},{"OBJECT_NAME":"STARLINK-32453","OBJECT_ID":"2024-193L","EPOCH":"2026-03-09T11:10:09.107616","MEAN_MOTION":15.30174734,"ECCENTRICITY":0.00012199,"INCLINATION":53.1602,"RA_OF_ASC_NODE":91.9507,"ARG_OF_PERICENTER":89.0417,"MEAN_ANOMALY":271.0724,"EPHEMERIS_TYPE":0,"CLASSIFICATION_TYPE":"U","NORAD_CAT_ID":61671,"ELEMENT_SET_NO":999,"REV_AT_EPOCH":7649,"BSTAR":-3.7467349e-5,"MEAN_MOTION_DOT":-1.468e-5,"MEAN_MOTION_DDOT":0}]
